[{"OBJECT_NAME":"CENTISPACE-1 S6","OBJECT_ID":"2022-126B","EPOCH":"2026-03-04T18:12:26.399232","MEAN_MOTION":14.62119596,"ECCENTRICITY":0.0013963,"INCLINATION":54.9985,"RA_OF_ASC_NODE":272.1787,"ARG_OF_PERICENTER":182.995,"MEAN_ANOMALY":177.0963,"EPHEMERIS_TYPE":0,"CLASSIFICATION_TYPE":"U","NORAD_CAT_ID":54021,"ELEMENT_SET_NO":999,"REV_AT_EPOCH":18172,"BSTAR":0.00022113,"MEAN_MOTION_DOT":9.33e-6,"MEAN_MOTION_DDOT":0},{"OBJECT_NAME":"OTB-3-GAZELLE","OBJECT_ID":"2022-127A","EPOCH":"2026-03-04T11:16:08.901408","MEAN_MOTION":14.42632987,"ECCENTRICITY":0.0013892,"INCLINATION":98.3903,"RA_OF_ASC_NODE":56.7954,"ARG_OF_PERICENTER":140.4123,"MEAN_ANOMALY":219.8084,"EPHEMERIS_TYPE":0,"CLASSIFICATION_TYPE":"U","NORAD_CAT_ID":54023,"ELEMENT_SET_NO":999,"REV_AT_EPOCH":17926,"BSTAR":4.8938791e-5,"MEAN_MOTION_DOT":1.2e-6,"MEAN_MOTION_DDOT":0},{"OBJECT_NAME":"ASO-S","OBJECT_ID":"2022-129A","EPOCH":"2026-03-04T20:32:56.523264","MEAN_MOTION":14.52009299,"ECCENTRICITY":0.0015362,"INCLINATION":98.2776,"RA_OF_ASC_NODE":70.4237,"ARG_OF_PERICENTER":56.2984,"MEAN_ANOMALY":303.9673,"EPHEMERIS_TYPE":0,"CLASSIFICATION_TYPE":"U","NORAD_CAT_ID":54029,"ELEMENT_SET_NO":999,"REV_AT_EPOCH":18028,"BSTAR":8.7695e-5,"MEAN_MOTION_DOT":3.1e-6,"MEAN_MOTION_DDOT":0},{"OBJECT_NAME":"HJ-2E","OBJECT_ID":"2022-132A","EPOCH":"2026-03-04T20:25:00.716736","MEAN_MOTION":15.20709659,"ECCENTRICITY":0.002155,"INCLINATION":97.3823,"RA_OF_ASC_NODE":70.2157,"ARG_OF_PERICENTER":19.9522,"MEAN_ANOMALY":340.2552,"EPHEMERIS_TYPE":0,"CLASSIFICATION_TYPE":"U","NORAD_CAT_ID":54035,"ELEMENT_SET_NO":999,"REV_AT_EPOCH":18855,"BSTAR":0.00058908,"MEAN_MOTION_DOT":0.00012976,"MEAN_MOTION_DDOT":0},{"OBJECT_NAME":"COSMOS 2561","OBJECT_ID":"2022-137A","EPOCH":"2026-03-04T20:36:12.781728","MEAN_MOTION":15.48890932,"ECCENTRICITY":0.0011188,"INCLINATION":96.9329,"RA_OF_ASC_NODE":126.8749,"ARG_OF_PERICENTER":57.5336,"MEAN_ANOMALY":302.6997,"EPHEMERIS_TYPE":0,"CLASSIFICATION_TYPE":"U","NORAD_CAT_ID":54109,"ELEMENT_SET_NO":999,"REV_AT_EPOCH":19018,"BSTAR":0.00033687,"MEAN_MOTION_DOT":0.00018132,"MEAN_MOTION_DDOT":0},{"OBJECT_NAME":"GONETS-M 23","OBJECT_ID":"2022-139A","EPOCH":"2026-03-04T20:35:54.563424","MEAN_MOTION":12.42886278,"ECCENTRICITY":0.0022688,"INCLINATION":82.5035,"RA_OF_ASC_NODE":53.1198,"ARG_OF_PERICENTER":88.8448,"MEAN_ANOMALY":271.5231,"EPHEMERIS_TYPE":0,"CLASSIFICATION_TYPE":"U","NORAD_CAT_ID":54150,"ELEMENT_SET_NO":999,"REV_AT_EPOCH":15268,"BSTAR":6.2838e-6,"MEAN_MOTION_DOT":1.1e-7,"MEAN_MOTION_DDOT":0},{"OBJECT_NAME":"GONETS-M 24","OBJECT_ID":"2022-139B","EPOCH":"2026-03-04T19:57:13.652928","MEAN_MOTION":12.42886746,"ECCENTRICITY":0.0017855,"INCLINATION":82.4949,"RA_OF_ASC_NODE":52.2675,"ARG_OF_PERICENTER":98.5873,"MEAN_ANOMALY":261.723,"EPHEMERIS_TYPE":0,"CLASSIFICATION_TYPE":"U","NORAD_CAT_ID":54151,"ELEMENT_SET_NO":999,"REV_AT_EPOCH":15268,"BSTAR":6.0755e-5,"MEAN_MOTION_DOT":1.8e-7,"MEAN_MOTION_DDOT":0},{"OBJECT_NAME":"GONETS-M 25","OBJECT_ID":"2022-139C","EPOCH":"2026-03-04T19:37:32.483712","MEAN_MOTION":12.42886152,"ECCENTRICITY":0.0021771,"INCLINATION":82.5018,"RA_OF_ASC_NODE":52.9063,"ARG_OF_PERICENTER":97.3796,"MEAN_ANOMALY":262.9758,"EPHEMERIS_TYPE":0,"CLASSIFICATION_TYPE":"U","NORAD_CAT_ID":54152,"ELEMENT_SET_NO":999,"REV_AT_EPOCH":15268,"BSTAR":6.989e-5,"MEAN_MOTION_DOT":2.0e-7,"MEAN_MOTION_DDOT":0},{"OBJECT_NAME":"SKIF-D","OBJECT_ID":"2022-139D","EPOCH":"2026-03-04T07:56:40.612704","MEAN_MOTION":5.00429634,"ECCENTRICITY":0.00073616,"INCLINATION":89.9565,"RA_OF_ASC_NODE":96.7053,"ARG_OF_PERICENTER":236.3444,"MEAN_ANOMALY":123.6595,"EPHEMERIS_TYPE":0,"CLASSIFICATION_TYPE":"U","NORAD_CAT_ID":54153,"ELEMENT_SET_NO":999,"REV_AT_EPOCH":5886,"BSTAR":0,"MEAN_MOTION_DOT":3.3e-7,"MEAN_MOTION_DDOT":0},{"OBJECT_NAME":"MATS","OBJECT_ID":"2022-147A","EPOCH":"2026-03-04T11:10:36.552576","MEAN_MOTION":15.04617112,"ECCENTRICITY":0.00122708,"INCLINATION":97.6837,"RA_OF_ASC_NODE":65.5705,"ARG_OF_PERICENTER":186.3331,"MEAN_ANOMALY":173.7742,"EPHEMERIS_TYPE":0,"CLASSIFICATION_TYPE":"U","NORAD_CAT_ID":54227,"ELEMENT_SET_NO":999,"REV_AT_EPOCH":18201,"BSTAR":0.00041345373,"MEAN_MOTION_DOT":5.755e-5,"MEAN_MOTION_DDOT":0},{"OBJECT_NAME":"JILIN-1 GAOFEN 03D54","OBJECT_ID":"2022-155D","EPOCH":"2026-03-04T21:04:22.409760","MEAN_MOTION":15.67215403,"ECCENTRICITY":0.0002247,"INCLINATION":97.6025,"RA_OF_ASC_NODE":206.259,"ARG_OF_PERICENTER":341.3516,"MEAN_ANOMALY":18.7661,"EPHEMERIS_TYPE":0,"CLASSIFICATION_TYPE":"U","NORAD_CAT_ID":54254,"ELEMENT_SET_NO":999,"REV_AT_EPOCH":18383,"BSTAR":0.00098941,"MEAN_MOTION_DOT":0.00107051,"MEAN_MOTION_DDOT":0},{"OBJECT_NAME":"EOS-6 (OCEANSAT-3)","OBJECT_ID":"2022-158A","EPOCH":"2026-03-04T21:15:47.952288","MEAN_MOTION":14.47000704,"ECCENTRICITY":1.9e-5,"INCLINATION":98.349,"RA_OF_ASC_NODE":163.5005,"ARG_OF_PERICENTER":37.0558,"MEAN_ANOMALY":323.0648,"EPHEMERIS_TYPE":0,"CLASSIFICATION_TYPE":"U","NORAD_CAT_ID":54361,"ELEMENT_SET_NO":999,"REV_AT_EPOCH":17275,"BSTAR":0.00016235,"MEAN_MOTION_DOT":5.47e-6,"MEAN_MOTION_DDOT":0},{"OBJECT_NAME":"DONGPO 09","OBJECT_ID":"2022-167D","EPOCH":"2026-03-04T20:34:33.102048","MEAN_MOTION":15.33773784,"ECCENTRICITY":0.0003579,"INCLINATION":97.6793,"RA_OF_ASC_NODE":230.4527,"ARG_OF_PERICENTER":128.7919,"MEAN_ANOMALY":231.3643,"EPHEMERIS_TYPE":0,"CLASSIFICATION_TYPE":"U","NORAD_CAT_ID":54685,"ELEMENT_SET_NO":999,"REV_AT_EPOCH":17944,"BSTAR":0.00058936,"MEAN_MOTION_DOT":0.00019196,"MEAN_MOTION_DDOT":0},{"OBJECT_NAME":"DONGPO 08","OBJECT_ID":"2022-167E","EPOCH":"2026-03-04T20:38:59.025696","MEAN_MOTION":15.31374515,"ECCENTRICITY":0.0008998,"INCLINATION":97.675,"RA_OF_ASC_NODE":228.1093,"ARG_OF_PERICENTER":171.1265,"MEAN_ANOMALY":189.0137,"EPHEMERIS_TYPE":0,"CLASSIFICATION_TYPE":"U","NORAD_CAT_ID":54686,"ELEMENT_SET_NO":999,"REV_AT_EPOCH":17934,"BSTAR":0.00058665,"MEAN_MOTION_DOT":0.00017738,"MEAN_MOTION_DDOT":0},{"OBJECT_NAME":"2022-167F","OBJECT_ID":"2022-167F","EPOCH":"2026-03-04T20:03:01.482912","MEAN_MOTION":15.67520889,"ECCENTRICITY":0.0001791,"INCLINATION":97.621,"RA_OF_ASC_NODE":241.1469,"ARG_OF_PERICENTER":53.8512,"MEAN_ANOMALY":306.2914,"EPHEMERIS_TYPE":0,"CLASSIFICATION_TYPE":"U","NORAD_CAT_ID":54687,"ELEMENT_SET_NO":999,"REV_AT_EPOCH":18037,"BSTAR":0.00091215,"MEAN_MOTION_DOT":0.00099816,"MEAN_MOTION_DDOT":0},{"OBJECT_NAME":"DONGPO 10","OBJECT_ID":"2022-167H","EPOCH":"2026-03-04T20:29:33.783936","MEAN_MOTION":15.32109177,"ECCENTRICITY":0.0006138,"INCLINATION":97.6835,"RA_OF_ASC_NODE":229.8109,"ARG_OF_PERICENTER":122.3571,"MEAN_ANOMALY":237.8265,"EPHEMERIS_TYPE":0,"CLASSIFICATION_TYPE":"U","NORAD_CAT_ID":54689,"ELEMENT_SET_NO":999,"REV_AT_EPOCH":17937,"BSTAR":0.0005706,"MEAN_MOTION_DOT":0.00017638,"MEAN_MOTION_DDOT":0},{"OBJECT_NAME":"JILIN-1 GAOFEN 03D48","OBJECT_ID":"2022-167P","EPOCH":"2026-03-04T20:02:25.652832","MEAN_MOTION":15.32767698,"ECCENTRICITY":0.0007495,"INCLINATION":97.6766,"RA_OF_ASC_NODE":229.1456,"ARG_OF_PERICENTER":127.4354,"MEAN_ANOMALY":232.757,"EPHEMERIS_TYPE":0,"CLASSIFICATION_TYPE":"U","NORAD_CAT_ID":54695,"ELEMENT_SET_NO":999,"REV_AT_EPOCH":17939,"BSTAR":0.00057615,"MEAN_MOTION_DOT":0.00018188,"MEAN_MOTION_DDOT":0},{"OBJECT_NAME":"STAR VIBE","OBJECT_ID":"2023-001A","EPOCH":"2026-03-04T19:55:53.317344","MEAN_MOTION":15.39580646,"ECCENTRICITY":0.0007498,"INCLINATION":97.3299,"RA_OF_ASC_NODE":128.0357,"ARG_OF_PERICENTER":126.0434,"MEAN_ANOMALY":234.1508,"EPHEMERIS_TYPE":0,"CLASSIFICATION_TYPE":"U","NORAD_CAT_ID":55009,"ELEMENT_SET_NO":999,"REV_AT_EPOCH":17615,"BSTAR":0.00050568,"MEAN_MOTION_DOT":0.00019862,"MEAN_MOTION_DDOT":0},{"OBJECT_NAME":"BRO-8","OBJECT_ID":"2023-001C","EPOCH":"2026-03-04T20:07:25.663008","MEAN_MOTION":15.42803816,"ECCENTRICITY":0.0007784,"INCLINATION":97.3353,"RA_OF_ASC_NODE":127.9337,"ARG_OF_PERICENTER":136.4893,"MEAN_ANOMALY":223.697,"EPHEMERIS_TYPE":0,"CLASSIFICATION_TYPE":"U","NORAD_CAT_ID":55011,"ELEMENT_SET_NO":999,"REV_AT_EPOCH":17608,"BSTAR":0.00085141,"MEAN_MOTION_DOT":0.00037359,"MEAN_MOTION_DDOT":0},{"OBJECT_NAME":"CONNECTA T1.2","OBJECT_ID":"2023-001D","EPOCH":"2026-03-04T03:35:05.803872","MEAN_MOTION":15.44210542,"ECCENTRICITY":0.00080813,"INCLINATION":97.3399,"RA_OF_ASC_NODE":132.4441,"ARG_OF_PERICENTER":120.0802,"MEAN_ANOMALY":240.1248,"EPHEMERIS_TYPE":0,"CLASSIFICATION_TYPE":"U","NORAD_CAT_ID":55012,"ELEMENT_SET_NO":999,"REV_AT_EPOCH":17630,"BSTAR":0.00058873968,"MEAN_MOTION_DOT":0.00027025,"MEAN_MOTION_DDOT":0},{"OBJECT_NAME":"BIRKELAND","OBJECT_ID":"2023-001G","EPOCH":"2026-03-04T20:42:46.203264","MEAN_MOTION":15.38069311,"ECCENTRICITY":0.0008611,"INCLINATION":97.3456,"RA_OF_ASC_NODE":131.6637,"ARG_OF_PERICENTER":117.6774,"MEAN_ANOMALY":242.5346,"EPHEMERIS_TYPE":0,"CLASSIFICATION_TYPE":"U","NORAD_CAT_ID":55015,"ELEMENT_SET_NO":999,"REV_AT_EPOCH":17630,"BSTAR":0.00034806,"MEAN_MOTION_DOT":0.0001298,"MEAN_MOTION_DDOT":0},{"OBJECT_NAME":"ION SCV-008","OBJECT_ID":"2023-001AU","EPOCH":"2026-03-04T06:07:02.860608","MEAN_MOTION":15.27119994,"ECCENTRICITY":0.00156974,"INCLINATION":97.5692,"RA_OF_ASC_NODE":157.9574,"ARG_OF_PERICENTER":27.8504,"MEAN_ANOMALY":332.3572,"EPHEMERIS_TYPE":0,"CLASSIFICATION_TYPE":"U","NORAD_CAT_ID":55051,"ELEMENT_SET_NO":999,"REV_AT_EPOCH":17531,"BSTAR":0.00041460141,"MEAN_MOTION_DOT":0.00010994,"MEAN_MOTION_DDOT":0},{"OBJECT_NAME":"ION SCV-007","OBJECT_ID":"2023-001BD","EPOCH":"2026-03-04T03:49:56.853984","MEAN_MOTION":14.7744448,"ECCENTRICITY":0.00113993,"INCLINATION":97.9132,"RA_OF_ASC_NODE":128.207,"ARG_OF_PERICENTER":320.215,"MEAN_ANOMALY":39.8224,"EPHEMERIS_TYPE":0,"CLASSIFICATION_TYPE":"U","NORAD_CAT_ID":55060,"ELEMENT_SET_NO":999,"REV_AT_EPOCH":17074,"BSTAR":0.00011160137,"MEAN_MOTION_DOT":7.44e-6,"MEAN_MOTION_DDOT":0}]
